IRIDIUM 136             
1 42962U 17061H   23309.82021576  .00000703  00000+0  24400-3 0  9998
2 42962  86.3975  64.0819 0001791  89.7057 270.4344 14.34218990318046
